NORAD_CAT_ID,OBJECT_NAME,OBJECT_TYPE,EPOCH,MEAN_MOTION,ECCENTRICITY,INCLINATION,RA_OF_ASC_NODE,ARG_OF_PERICENTER,MEAN_ANOMALY,BSTAR,MEAN_MOTION_DOT,MEAN_MOTION_DDOT,TLE_LINE0,TLE_LINE1,TLE_LINE2,SEMIMAJOR_AXIS,PERIOD,APOGEE,PERIGEE,DECAYED
52293.0,STARLINK-3771,PAYLOAD,2024-02-21 04:13:43,15.08841523,0.0001352,53.2155,214.8491,84.1306,275.984,3.3195e-05,2.4e-06,0.0,0 STARLINK-3771,1 52293U 22041AJ  24052.17619800  .00000240  00000-0  33195-4 0  9996,2 52293  53.2155 214.8491 0001352  84.1306 275.9840 15.08841523102876,6917.876,95.437,540.676,538.805,0.0
52293.0,STARLINK-3771,PAYLOAD,2024-02-21 16:56:48,15.08844469,0.0001364,53.215,212.4699,84.2276,275.8871,0.00013075,1.794e-05,0.0,0 STARLINK-3771,1 52293U 22041AJ  24052.70611302  .00001794  00000-0  13075-3 0  9993,2 52293  53.2150 212.4699 0001364  84.2276 275.8871 15.08844469101734,6917.867,95.437,540.675,538.788,0.0
52293.0,STARLINK-3771,PAYLOAD,2024-02-22 04:04:30,15.08842484,0.0001325,53.2154,210.389,81.981,278.1333,9.9279e-05,1.293e-05,0.0,0 STARLINK-3771,1 52293U 22041AJ  24053.16979435  .00001293  00000-0  99279-4 0  9993,2 52293  53.2154 210.3890 0001325  81.9810 278.1333 15.08842484101805,6917.873,95.437,540.654,538.821,0.0
52293.0,STARLINK-3771,PAYLOAD,2024-02-22 16:47:35,15.08835024,0.0001311,53.2162,208.0102,83.5084,276.6057,7.3417e-05,8.81e-06,0.0,0 STARLINK-3771,1 52293U 22041AJ  24053.69972056  .00000881  00000-0  73417-4 0  9991,2 52293  53.2162 208.0102 0001311  83.5084 276.6057 15.08835024103103,6917.896,95.438,540.668,538.854,0.0
52293.0,STARLINK-3771,PAYLOAD,2024-02-23 13:27:36,15.08840321,0.0001368,53.2167,204.1425,92.4481,267.6667,-3.9911e-05,-9.23e-06,0.0,0 STARLINK-3771,1 52293U 22041AJ  24054.56084104 -.00000923  00000-0 -39911-4 0  9996,2 52293  53.2167 204.1425 0001368  92.4481 267.6667 15.08840321102017,6917.879,95.438,540.691,538.798,0.0
52293.0,STARLINK-3771,PAYLOAD,2024-02-23 16:38:22,15.08842371,0.0001373,53.2171,203.5475,93.7863,266.3286,-2.5336e-05,-6.91e-06,0.0,0 STARLINK-3771,1 52293U 22041AJ  24054.69331888 -.00000691  00000-0 -25336-4 0  9992,2 52293  53.2171 203.5475 0001373  93.7863 266.3286 15.08842371102036,6917.873,95.437,540.688,538.788,0.0
52293.0,STARLINK-3771,PAYLOAD,2024-02-24 10:07:37,15.08835775,0.0001327,53.2171,200.2773,93.5823,266.5321,2.3799e-05,9.1e-07,0.0,0 STARLINK-3771,1 52293U 22041AJ  24055.42196202  .00000091  00000-0  23799-4 0  9996,2 52293  53.2171 200.2773 0001327  93.5823 266.5321 15.08835775103363,6917.893,95.438,540.676,538.84,0.0
52293.0,STARLINK-3771,PAYLOAD,2024-02-24 13:18:23,15.08837868,0.0001338,53.2171,199.6827,93.7051,266.4094,3.9154e-05,3.35e-06,0.0,0 STARLINK-3771,1 52293U 22041AJ  24055.55444058  .00000335  00000-0  39154-4 0  9998,2 52293  53.2171 199.6827 0001338  93.7051 266.4094 15.08837868102169,6917.887,95.438,540.678,538.826,0.0
52293.0,STARLINK-3771,PAYLOAD,2024-02-24 16:29:09,15.08840802,0.0001231,53.2164,199.0903,91.5648,268.5485,7.442e-05,8.97e-06,0.0,0 STARLINK-3771,1 52293U 22041AJ  24055.68691793  .00000897  00000-0  74420-4 0  9990,2 52293  53.2164 199.0903 0001231  91.5648 268.5485 15.08840802102181,6917.878,95.438,540.595,538.891,0.0
52293.0,STARLINK-3771,PAYLOAD,2024-02-25 14:44:33,15.08845021,0.0001416,53.2172,194.9288,98.1674,261.9479,8.8618e-05,1.123e-05,0.0,0 STARLINK-3771,1 52293U 22041AJ  24056.61427576  .00001123  00000-0  88618-4 0  9997,2 52293  53.2172 194.9288 0001416  98.1674 261.9479 15.08845021102321,6917.865,95.437,540.71,538.75,0.0
52293.0,STARLINK-3771,PAYLOAD,2024-02-25 16:19:56,15.08813688,0.0001576,53.2172,194.6317,99.6015,260.5156,0.00053096,8.166e-05,0.0,0 STARLINK-3771,1 52293U 22041AJ  24056.68052034  .00008166  00000-0  53096-3 0  9992,2 52293  53.2172 194.6317 0001576  99.6015 260.5156 15.08813688103550,6917.961,95.439,540.916,538.736,0.0
52293.0,STARLINK-3771,PAYLOAD,2024-02-26 14:35:21,15.08831455,0.0001677,53.2176,190.4678,93.794,266.3244,-4.8004e-05,-1.052e-05,0.0,0 STARLINK-3771,1 52293U 22041AJ  24057.60789279 -.00001052  00000-0 -48004-4 0  9996,2 52293  53.2176 190.4678 0001677  93.7940 266.3244 15.08831455102476,6917.907,95.438,540.932,538.611,0.0
52293.0,STARLINK-3771,PAYLOAD,2024-02-26 17:46:07,15.08842072,0.0001403,53.2165,189.8734,102.924,257.1908,4.8936e-05,4.91e-06,0.0,0 STARLINK-3771,1 52293U 22041AJ  24057.74036260  .00000491  00000-0  48936-4 0  9994,2 52293  53.2165 189.8734 0001403 102.9240 257.1908 15.08842072103712,6917.874,95.437,540.71,538.768,0.0
52293.0,STARLINK-3771,PAYLOAD,2024-02-27 14:26:08,15.08840968,0.0001465,53.217,186.0064,97.0115,263.1044,-1.7479e-05,-5.66e-06,0.0,0 STARLINK-3771,1 52293U 22041AJ  24058.60148667 -.00000566  00000-0 -17479-4 0  9998,2 52293  53.2170 186.0064 0001465  97.0115 263.1044 15.08840968102625,6917.877,95.437,540.756,538.729,0.0
52293.0,STARLINK-3771,PAYLOAD,2024-02-27 17:36:54,15.08843528,0.0001543,53.2166,185.4116,76.1179,283.9985,1.0286e-05,-1.24e-06,0.0,0 STARLINK-3771,1 52293U 22041AJ  24058.73396533 -.00000124  00000-0  10286-4 0  9997,2 52293  53.2166 185.4116 0001543  76.1179 283.9985 15.08843528102647,6917.87,95.437,540.802,538.667,0.0
52293.0,STARLINK-3771,PAYLOAD,2024-02-28 14:16:55,15.08830181,0.0001014,53.2158,181.5416,104.7712,255.3392,0.00010615,1.402e-05,0.0,0 STARLINK-3771,1 52293U 22041AJ  24059.59509013  .00001402  00000-0  10615-3 0  9995,2 52293  53.2158 181.5416 0001014 104.7712 255.3392 15.08830181102772,6917.91,95.438,540.477,539.074,0.0
52293.0,STARLINK-3771,PAYLOAD,2024-02-28 15:52:16,15.08873566,0.0001329,53.2174,181.2488,86.2366,273.8778,0.00032781,4.938e-05,0.0,0 STARLINK-3771,1 52293U 22041AJ  24059.66130050  .00004938  00000-0  32781-3 0  9999,2 52293  53.2174 181.2488 0001329  86.2366 273.8778 15.08873566104009,6917.778,95.435,540.562,538.723,0.0
52293.0,STARLINK-3771,PAYLOAD,2024-02-29 07:46:09,15.08845453,0.0001398,53.2179,178.2729,81.9036,278.2114,5.0286e-06,-2.08e-06,0.0,0 STARLINK-3771,1 52293U 22041AJ  24060.32372421 -.00000208  00000-0  50286-5 0  9993,2 52293  53.2179 178.2729 0001398  81.9036 278.2114 15.08845453104108,6917.864,95.437,540.696,538.762,0.0
52293.0,STARLINK-3771,PAYLOAD,2024-02-29 14:07:42,15.08842276,0.0001328,53.218,177.0831,87.7663,272.3481,-2.1906e-05,-6.37e-06,0.0,0 STARLINK-3771,1 52293U 22041AJ  24060.58868594 -.00000637  00000-0 -21906-4 0  9995,2 52293  53.2180 177.0831 0001328  87.7663 272.3481 15.08842276102924,6917.873,95.437,540.657,538.82,0.0
52293.0,STARLINK-3771,PAYLOAD,2024-02-29 17:18:28,15.08844898,0.0001263,53.2176,176.4874,98.6019,261.5116,2.6964e-07,-2.84e-06,0.0,0 STARLINK-3771,1 52293U 22041AJ  24060.72116416 -.00000284  00000-0  26964-6 0  9998,2 52293  53.2176 176.4874 0001263  98.6019 261.5116 15.08844898102942,6917.865,95.437,540.604,538.857,0.0
52293.0,STARLINK-3771,PAYLOAD,2024-03-01 12:23:05,15.08863102,0.0001405,53.2194,172.9191,105.1406,254.9742,-0.00020332,-3.524e-05,0.0,0 STARLINK-3771,1 52293U 22041AJ  24061.51603974 -.00003524  00000-0 -20332-3 0  9997,2 52293  53.2194 172.9191 0001405 105.1406 254.9742 15.08863102104286,6917.81,95.436,540.647,538.703,0.0
52293.0,STARLINK-3771,PAYLOAD,2024-03-01 13:58:28,15.08870443,0.0001041,53.2174,172.625,78.5934,281.5175,-0.00012661,-2.304e-05,0.0,0 STARLINK-3771,1 52293U 22041AJ  24061.58227155 -.00002304  00000-0 -12661-3 0  9998,2 52293  53.2174 172.6250 0001041  78.5934 281.5175 15.08870443103070,6917.787,95.436,540.372,538.932,0.0
52293.0,STARLINK-3771,PAYLOAD,2024-03-02 12:13:53,15.08834924,0.0001325,53.2187,168.4586,112.6963,247.417,1.0679e-05,-1.18e-06,0.0,0 STARLINK-3771,1 52293U 22041AJ  24062.50964681 -.00000118  00000-0  10679-4 0  9991,2 52293  53.2187 168.4586 0001325 112.6963 247.4170 15.08834924104437,6917.896,95.438,540.678,538.844,0.0
52293.0,STARLINK-3771,PAYLOAD,2024-03-02 13:49:16,15.0883576,0.000134,53.2179,168.161,106.5432,253.5708,1.9652e-05,2.5e-07,0.0,0 STARLINK-3771,1 52293U 22041AJ  24062.57588643  .00000025  00000-0  19652-4 0  9994,2 52293  53.2179 168.1610 0001340 106.5432 253.5708 15.08835760103223,6917.893,95.438,540.685,538.831,0.0
52293.0,STARLINK-3771,PAYLOAD,2024-03-03 13:40:03,15.08843267,0.0001233,53.2166,163.7027,92.2255,267.8878,-3.7022e-05,-8.77e-06,0.0,0 STARLINK-3771,1 52293U 22041AJ  24063.56948725 -.00000877  00000-0 -37022-4 0  9993,2 52293  53.2166 163.7027 0001233  92.2255 267.8878 15.08843267103370,6917.87,95.437,540.588,538.882,0.0
52293.0,STARLINK-3771,PAYLOAD,2024-03-04 11:55:26,15.08847186,0.0001784,53.2168,159.5408,118.3615,241.7557,0.00014769,2.064e-05,0.0,0 STARLINK-3771,1 52293U 22041AJ  24064.49683870  .00002064  00000-0  14769-3 0  9993,2 52293  53.2168 159.5408 0001784 118.3615 241.7557 15.08847186104739,6917.858,95.437,540.958,538.489,0.0
52293.0,STARLINK-3771,PAYLOAD,2024-03-04 13:30:50,15.08846656,0.0001342,53.2171,159.2439,103.4253,256.6889,8.8817e-05,1.126e-05,0.0,0 STARLINK-3771,1 52293U 22041AJ  24064.56307974  .00001126  00000-0  88817-4 0  9993,2 52293  53.2171 159.2439 0001342 103.4253 256.6889 15.08846656103527,6917.86,95.437,540.653,538.797,0.0
52293.0,STARLINK-3771,PAYLOAD,2024-03-04 23:03:10,15.08831929,0.00015,53.2169,157.4594,96.9485,263.1677,1.2657e-05,-8.7e-07,0.0,0 STARLINK-3771,1 52293U 22041AJ  24064.96053295 -.00000087  00000-0  12657-4 0  9996,2 52293  53.2169 157.4594 0001500  96.9485 263.1677 15.08831929104802,6917.905,95.438,540.808,538.732,0.0
52293.0,STARLINK-3771,PAYLOAD,2024-03-05 13:21:39,15.08822289,0.000135,53.2168,154.7836,90.3954,269.7193,-9.4222e-05,-1.786e-05,0.0,0 STARLINK-3771,1 52293U 22041AJ  24065.55670990 -.00001786  00000-0 -94222-4 0  9995,2 52293  53.2168 154.7836 0001350  90.3954 269.7193 15.08822289103670,6917.935,95.439,540.733,538.866,0.0
52293.0,STARLINK-3771,PAYLOAD,2024-03-06 10:01:38,15.0885977,0.0001487,53.2165,150.9166,107.8674,252.248,1.4448e-05,-5.8e-07,0.0,0 STARLINK-3771,1 52293U 22041AJ  24066.41780509 -.00000058  00000-0  14448-4 0  9991,2 52293  53.2165 150.9166 0001487 107.8674 252.2480 15.08859770105027,6917.82,95.436,540.714,538.656,0.0
